IRIDIUM 166             
1 43570U 18061B   25288.19822283 -.00000007  00000+0 -94115-5 0  9998
2 43570  86.4010 159.1567 0001878  80.7512 279.3896 14.34217649378284
IRIDIUM 158             
1 43571U 18061C   25288.37581333  .00000315  00000+0  10533-3 0  9997
2 43571  86.4008 159.0928 0002270  84.2375 275.9080 14.34217545378276
IRIDIUM 165             
1 43572U 18061D   25288.61049072  .00000325  00000+0  10883-3 0  9993
2 43572  86.4010 159.0365 0001969  83.7758 276.3662 14.34218870378338
IRIDIUM 155             
1 43573U 18061E   25288.64220476  .00000065  00000+0  16314-4 0  9993
2 43573  86.4004 158.9044 0002268  79.5699 280.5752 14.34217599378305
IRIDIUM 154             
1 43574U 18061F   25288.62319696  .00000343  00000+0  11557-3 0  9997
2 43574  86.4009 159.0338 0002104  84.0338 276.1098 14.34219466378353
IRIDIUM 163             
1 43575U 18061G   25288.18555149  .00000350  00000+0  11801-3 0  9994
2 43575  86.4008 159.1396 0002323  86.5184 273.6277 14.34214800378265
IRIDIUM 156             
1 43576U 18061H   25288.57877894  .00000021  00000+0  56305-6 0  9998
2 43576  86.4008 158.9826 0002091  76.5892 283.5537 14.34217537378313
IRIDIUM 164             
1 43577U 18061J   25288.35044507  .00000058  00000+0  13665-4 0  9992
2 43577  86.4009 159.1142 0001928  83.3167 276.8249 14.34217549378327
